{"fetched_at":"2026-03-29T16:36:15Z","count":15609,"tles":[{"name":"STARLINK-5744","line1":"1 55601U 23020AJ  26087.79908225  .00007487  00000+0  28807-3 0  9992","line2":"2 55601  43.0033 257.4191 0002864 254.9544 105.0991 15.26790806171833","category":"Starlink"}]}